IRIDIUM 136             
1 42962U 17061H   24295.89540185  .00000427  00000+0  14537-3 0  9995
2 42962  86.3915 277.3344 0002227  93.0608 267.0842 14.34218141368360
